[{"OBJECT_NAME":"STARLINK-2151","OBJECT_ID":"2021-041D","EPOCH":"2026-03-10T00:00:02.999808","MEAN_MOTION":15.10939754,"ECCENTRICITY":0.00016039,"INCLINATION":53.0699,"RA_OF_ASC_NODE":140.1993,"ARG_OF_PERICENTER":79.4204,"MEAN_ANOMALY":104.2412,"EPHEMERIS_TYPE":0,"CLASSIFICATION_TYPE":"U","NORAD_CAT_ID":48556,"ELEMENT_SET_NO":999,"REV_AT_EPOCH":574,"BSTAR":0.006129409,"MEAN_MOTION_DOT":0.00104599,"MEAN_MOTION_DDOT":0},{"OBJECT_NAME":"FENGYUN 1C DEB","OBJECT_ID":"1999-025FBT","EPOCH":"2026-03-07T08:06:46.128096","MEAN_MOTION":15.13951464,"ECCENTRICITY":0.0011424,"INCLINATION":98.245,"RA_OF_ASC_NODE":104.3614,"ARG_OF_PERICENTER":257.8823,"MEAN_ANOMALY":163.5702,"EPHEMERIS_TYPE":0,"CLASSIFICATION_TYPE":"U","NORAD_CAT_ID":47041,"ELEMENT_SET_NO":999,"REV_AT_EPOCH":72466,"BSTAR":0.0033934,"MEAN_MOTION_DOT":0.00062023,"MEAN_MOTION_DDOT":0}]
